FENGYUN 1C DEB          
1 30596U 99025AMB 17345.94600876  .00000072  00000-0  34806-4 0  9992
2 30596  98.5938  17.1168 0263560 285.3028 194.4741 14.29012358567802
